OBJECT_NAME,OBJECT_ID,EPOCH,MEAN_MOTION,ECCENTRICITY,INCLINATION,RA_OF_ASC_NODE,ARG_OF_PERICENTER,MEAN_ANOMALY,EPHEMERIS_TYPE,CLASSIFICATION_TYPE,NORAD_CAT_ID,ELEMENT_SET_NO,REV_AT_EPOCH,BSTAR,MEAN_MOTION_DOT,MEAN_MOTION_DDOT
STARLINK-35254,2025-211Y,2026-07-19T06:00:02.000160,15.10560283,.00018554,97.2844,241.6027,81.7797,294.7850,0,U,65674,999,574,-.38079792E-2,-.62298E-3,0
STARLINK-34749,2025-211Z,2026-07-19T02:54:57.815136,15.05659072,.00013329,97.2829,241.4621,117.3788,242.7576,0,U,65675,999,4682,.15217457E-3,.2141E-4,0
STARLINK-35189,2025-212A,2026-07-19T03:32:21.467616,15.30203623,.00012619,53.1594,94.8299,100.0747,260.0396,0,U,65676,999,4732,.26121944E-3,.7386E-4,0
STARLINK-35222,2025-212B,2026-07-19T01:50:46.980960,15.34400332,.00012712,53.1585,94.4011,96.0066,264.1082,0,U,65677,999,4738,.26775174E-3,.8681E-4,0
STARLINK-35233,2025-212C,2026-07-19T02:24:17.108064,15.31711912,.00014066,53.1600,95.2544,90.5518,269.5645,0,U,65678,999,4737,.22754373E-3,.6705E-4,0
STARLINK-35205,2025-212D,2026-07-19T02:51:15.859584,15.34388676,.00010731,53.1578,93.9502,94.2603,265.8522,0,U,65679,999,4733,.39231184E-3,.12897E-3,0
STARLINK-35070,2025-212E,2026-07-18T22:41:04.901568,15.30204148,.00013792,53.1580,95.7003,93.1716,266.9443,0,U,65680,999,4734,.17324928E-3,.4776E-4,0
STARLINK-35230,2025-212F,2026-07-19T02:36:07.620192,15.34392936,.00013721,53.1600,93.8802,95.1030,265.0129,0,U,65681,999,4739,.82196918E-3,.27491E-3,0
STARLINK-35235,2025-212G,2026-07-18T23:15:42.591744,15.34401502,.00015354,53.1578,93.0136,105.1032,255.0141,0,U,65682,999,4733,.44052411E-3,.14537E-3,0
STARLINK-34886,2025-212H,2026-07-19T00:49:13.495872,15.31710034,.00013562,53.1590,94.8372,95.3618,264.7538,0,U,65683,999,4731,.20731626E-3,.6075E-4,0
STARLINK-34795,2025-212J,2026-07-19T00:20:01.004928,15.34405013,.00013612,53.1587,94.7164,83.6528,276.4630,0,U,65684,999,4731,.33097845E-3,.10824E-3,0
STARLINK-35145,2025-212K,2026-07-18T23:16:23.115936,15.34404491,.00014935,53.1587,94.4376,99.4654,260.6518,0,U,65685,999,4731,.3160526E-3,.10318E-3,0
STARLINK-35137,2025-212L,2026-07-18T23:10:13.253088,15.34425519,.00012251,53.1585,84.4249,85.0679,275.0463,0,U,65686,999,4745,.46550996E-3,.15397E-3,0
STARLINK-34856,2025-212M,2026-07-19T02:16:28.533216,15.31693125,.00014614,53.1603,94.4999,102.9641,257.1523,0,U,65687,999,4732,.26877377E-3,.7982E-4,0
STARLINK-34930,2025-212N,2026-07-19T02:56:47.455008,15.31716146,.00012849,53.1585,94.6764,91.3539,268.7609,0,U,65688,999,4737,.28481782E-3,.8488E-4,0
STARLINK-34875,2025-212P,2026-07-18T22:31:05.002176,15.34345508,.00016202,53.1582,94.9519,113.1897,246.9277,0,U,65689,999,4735,-.20721666E-3,-.7359E-4,0
STARLINK-34790,2025-212Q,2026-07-19T00:32:08.080800,15.34396772,.00015403,53.1589,94.7663,66.1060,294.0104,0,U,65690,999,4731,.16020749E-3,.504E-4,0
STARLINK-34691,2025-212R,2026-07-19T00:04:37.056288,15.30199519,.00012936,53.1589,85.3590,99.7566,260.3581,0,U,65691,999,4749,.38336514E-3,.11012E-3,0
STARLINK-34825,2025-212S,2026-07-18T23:58:48.533376,15.34398643,.00014115,53.1586,94.6216,94.5613,265.5551,0,U,65692,999,4735,.2795825E-3,.9081E-4,0
STARLINK-35060,2025-212T,2026-07-18T22:45:45.434592,15.30200501,.00016396,53.1603,85.7299,85.9168,274.2021,0,U,65693,999,4748,.31717927E-3,.9046E-4,0
STARLINK-35204,2025-212U,2026-07-18T23:40:37.638336,15.34403905,.00014716,53.1580,94.5404,88.9808,271.1363,0,U,65694,999,4737,.45662494E-3,.15085E-3,0
STARLINK-35221,2025-212V,2026-07-19T00:37:55.762176,15.30203060,.00015198,53.1592,95.4934,74.2590,285.8578,0,U,65695,999,4736,.20780685E-3,.5801E-4,0
STARLINK-34734,2025-212W,2026-07-19T00:08:53.712672,15.31714905,.00013223,53.1581,94.6627,96.7776,263.3376,0,U,65696,999,4736,.25712801E-3,.7626E-4,0
STARLINK-35113,2025-212X,2026-07-19T02:20:16.059840,15.34403204,.00013417,53.1580,92.3885,97.2451,262.8704,0,U,65697,999,4740,.32696001E-3,.10687E-3,0
STARLINK-35090,2025-212Y,2026-07-19T02:17:55.363488,15.34395447,.00016093,53.1595,93.7990,95.7896,264.3290,0,U,65698,999,4738,.17275583E-3,.5464E-4,0
STARLINK-35086,2025-212Z,2026-07-19T02:04:07.579776,15.31711649,.0001498,53.1592,95.1592,87.0953,273.0219,0,U,65699,999,4731,.27367354E-3,.814E-4,0
STARLINK-35101,2025-212AA,2026-07-19T02:29:21.707808,15.34402541,.00012616,53.1581,92.4290,89.2761,270.8386,0,U,65700,999,4735,.43316228E-3,.14288E-3,0
STARLINK-35046,2025-212AB,2026-07-18T23:52:44.757408,15.34400269,.00013917,53.1584,94.5914,97.4612,262.6549,0,U,65701,999,4736,.28182352E-3,.9157E-4,0
STARLINK-35075,2025-212AC,2026-07-19T05:05:19.546656,15.31717798,.00013507,53.1587,94.5214,78.0426,282.0727,0,U,65702,999,4738,.34090655E-3,.10234E-3,0
STARLINK-34839,2025-212AD,2026-07-19T02:09:44.397216,15.31710092,.00017195,53.1585,94.4710,82.5471,277.5726,0,U,65703,999,4737,.15177405E-3,.4349E-4,0
