[ {"name": "STARLINK-35254", "line1": "1 65674U 25211Y   26200.25002315 -.00062298  00000+0 -38080-2 0  9996", "line2": "2 65674  97.2844 241.6027 0001855  81.7797 294.7850 15.10560283  5746"}, {"name": "STARLINK-34749", "line1": "1 65675U 25211Z   26200.12150249  .00002141  00000+0  15217-3 0  9990", "line2": "2 65675  97.2829 241.4621 0001332 117.3788 242.7576 15.05659072 46825"}, {"name": "STARLINK-35189", "line1": "1 65676U 25212A   26200.14747069  .00007386  00000+0  26122-3 0  9999", "line2": "2 65676  53.1594  94.8299 0001261 100.0747 260.0396 15.30203623 47326"}, {"name": "STARLINK-35222", "line1": "1 65677U 25212B   26200.07693265  .00008681  00000+0  26775-3 0  9993", "line2": "2 65677  53.1585  94.4011 0001271  96.0066 264.1082 15.34400332 47387"}, {"name": "STARLINK-35233", "line1": "1 65678U 25212C   26200.10019801  .00006705  00000+0  22754-3 0  9994", "line2": "2 65678  53.1600  95.2544 0001406  90.5518 269.5645 15.31711912 47376"}, {"name": "STARLINK-35205", "line1": "1 65679U 25212D   26200.11893356  .00012897  00000+0  39231-3 0  9998", "line2": "2 65679  53.1578  93.9502 0001073  94.2603 265.8522 15.34388676 47335"}, {"name": "STARLINK-35070", "line1": "1 65680U 25212E   26199.94519562  .00004776  00000+0  17325-3 0  9999", "line2": "2 65680  53.1580  95.7003 0001379  93.1716 266.9443 15.30204148 47340"}, {"name": "STARLINK-35230", "line1": "1 65681U 25212F   26200.10842153  .00027491  00000+0  82197-3 0  9994", "line2": "2 65681  53.1600  93.8802 0001372  95.1030 265.0129 15.34392936 47397"}, {"name": "STARLINK-35235", "line1": "1 65682U 25212G   26199.96924296  .00014537  00000+0  44052-3 0  9990", "line2": "2 65682  53.1578  93.0136 0001535 105.1032 255.0141 15.34401502 47336"}, {"name": "STARLINK-34886", "line1": "1 65683U 25212H   26200.03418398  .00006075  00000+0  20732-3 0  9990", "line2": "2 65683  53.1590  94.8372 0001356  95.3618 264.7538 15.31710034 47318"}, {"name": "STARLINK-34795", "line1": "1 65684U 25212J   26200.01390052  .00010824  00000+0  33098-3 0  9991", "line2": "2 65684  53.1587  94.7164 0001361  83.6528 276.4630 15.34405013 47313"}, {"name": "STARLINK-35145", "line1": "1 65685U 25212K   26199.96971199  .00010318  00000+0  31605-3 0  9990", "line2": "2 65685  53.1587  94.4376 0001493  99.4654 260.6518 15.34404491 47316"}, {"name": "STARLINK-35137", "line1": "1 65686U 25212L   26199.96543117  .00015397  00000+0  46551-3 0  9994", "line2": "2 65686  53.1585  84.4249 0001225  85.0679 275.0463 15.34425519 47452"}, {"name": "STARLINK-34856", "line1": "1 65687U 25212M   26200.09477469  .00007982  00000+0  26877-3 0  9998", "line2": "2 65687  53.1603  94.4999 0001461 102.9641 257.1523 15.31693125 47328"}, {"name": "STARLINK-34930", "line1": "1 65688U 25212N   26200.12277147  .00008488  00000+0  28482-3 0  9990", "line2": "2 65688  53.1585  94.6764 0001284  91.3539 268.7609 15.31716146 47377"}, {"name": "STARLINK-34875", "line1": "1 65689U 25212P   26199.93825234 -.00007359  00000+0 -20722-3 0  9990", "line2": "2 65689  53.1582  94.9519 0001620 113.1897 246.9277 15.34345508 47350"}, {"name": "STARLINK-34790", "line1": "1 65690U 25212Q   26200.02231575  .00005040  00000+0  16021-3 0  9994", "line2": "2 65690  53.1589  94.7663 0001540  66.1060 294.0104 15.34396772 47315"}, {"name": "STARLINK-34691", "line1": "1 65691U 25212R   26200.00320667  .00011012  00000+0  38337-3 0  9994", "line2": "2 65691  53.1589  85.3590 0001293  99.7566 260.3581 15.30199519 47499"}, {"name": "STARLINK-34825", "line1": "1 65692U 25212S   26199.99917284  .00009081  00000+0  27958-3 0  9997", "line2": "2 65692  53.1586  94.6216 0001411  94.5613 265.5551 15.34398643 47355"}, {"name": "STARLINK-35060", "line1": "1 65693U 25212T   26199.94844253  .00009046  00000+0  31718-3 0  9998", "line2": "2 65693  53.1603  85.7299 0001639  85.9168 274.2021 15.30200501 47483"}, {"name": "STARLINK-35204", "line1": "1 65694U 25212U   26199.98654674  .00015085  00000+0  45662-3 0  9992", "line2": "2 65694  53.1580  94.5404 0001471  88.9808 271.1363 15.34403905 47372"}, {"name": "STARLINK-35221", "line1": "1 65695U 25212V   26200.02633984  .00005801  00000+0  20781-3 0  9992", "line2": "2 65695  53.1592  95.4934 0001519  74.2590 285.8578 15.30203060 47368"}, {"name": "STARLINK-34734", "line1": "1 65696U 25212W   26200.00617723  .00007626  00000+0  25713-3 0  9991", "line2": "2 65696  53.1581  94.6627 0001322  96.7776 263.3376 15.31714905 47367"}, {"name": "STARLINK-35113", "line1": "1 65697U 25212X   26200.09740810  .00010687  00000+0  32696-3 0  9994", "line2": "2 65697  53.1580  92.3885 0001341  97.2451 262.8704 15.34403204 47409"}, {"name": "STARLINK-35090", "line1": "1 65698U 25212Y   26200.09577967  .00005464  00000+0  17276-3 0  9990", "line2": "2 65698  53.1595  93.7990 0001609  95.7896 264.3290 15.34395447 47384"}, {"name": "STARLINK-35086", "line1": "1 65699U 25212Z   26200.08619884  .00008140  00000+0  27367-3 0  9991", "line2": "2 65699  53.1592  95.1592 0001498  87.0953 273.0219 15.31711649 47314"}, {"name": "STARLINK-35101", "line1": "1 65700U 25212AA  26200.10372347  .00014288  00000+0  43316-3 0  9999", "line2": "2 65700  53.1581  92.4290 0001261  89.2761 270.8386 15.34402541 47354"}, {"name": "STARLINK-35046", "line1": "1 65701U 25212AB  26199.99496247  .00009157  00000+0  28182-3 0  9993", "line2": "2 65701  53.1584  94.5914 0001391  97.4612 262.6549 15.34400269 47360"}, {"name": "STARLINK-35075", "line1": "1 65702U 25212AC  26200.21203179  .00010234  00000+0  34091-3 0  9996", "line2": "2 65702  53.1587  94.5214 0001350  78.0426 282.0727 15.31717798 47381"}, {"name": "STARLINK-34839", "line1": "1 65703U 25212AD  26200.09009719  .00004349  00000+0  15177-3 0  9991", "line2": "2 65703  53.1585  94.4710 0001719  82.5471 277.5726 15.31710092 47376"}]